[{"OBJECT_NAME":"STARLINK-6170","OBJECT_ID":"2023-090AE","EPOCH":"2026-03-09T22:00:01.999584","MEAN_MOTION":15.081795,"ECCENTRICITY":0.00021157,"INCLINATION":43.0006,"RA_OF_ASC_NODE":260.8246,"ARG_OF_PERICENTER":263.8758,"MEAN_ANOMALY":58.3922,"EPHEMERIS_TYPE":0,"CLASSIFICATION_TYPE":"U","NORAD_CAT_ID":57129,"ELEMENT_SET_NO":999,"REV_AT_EPOCH":577,"BSTAR":0.0049029782,"MEAN_MOTION_DOT":0.00077734,"MEAN_MOTION_DDOT":0},{"OBJECT_NAME":"COSMOS 252","OBJECT_ID":"1968-097A","EPOCH":"2026-03-09T07:24:26.509824","MEAN_MOTION":12.88259748,"ECCENTRICITY":0.10045094,"INCLINATION":62.3208,"RA_OF_ASC_NODE":37.8588,"ARG_OF_PERICENTER":34.9769,"MEAN_ANOMALY":331.3181,"EPHEMERIS_TYPE":0,"CLASSIFICATION_TYPE":"U","NORAD_CAT_ID":3530,"ELEMENT_SET_NO":999,"REV_AT_EPOCH":69308,"BSTAR":0.00016764967,"MEAN_MOTION_DOT":3.47e-6,"MEAN_MOTION_DDOT":0}]
